OBJECT_NAME,OBJECT_ID,EPOCH,MEAN_MOTION,ECCENTRICITY,INCLINATION,RA_OF_ASC_NODE,ARG_OF_PERICENTER,MEAN_ANOMALY,EPHEMERIS_TYPE,CLASSIFICATION_TYPE,NORAD_CAT_ID,ELEMENT_SET_NO,REV_AT_EPOCH,BSTAR,MEAN_MOTION_DOT,MEAN_MOTION_DDOT
LEMUR-1,2014-033AL,2026-07-18T05:10:29.131680,14.85341695,.00474851,97.7913,348.3393,337.9146,22.0022,0,U,40044,999,65007,.86804628E-4,.705E-5,0
LEMUR-2-GREENBERG,2017-042N,2026-07-18T01:13:36.647040,15.32207983,.00073229,97.3835,19.5561,247.3182,112.7286,0,U,42837,999,49311,.31415728E-3,.9701E-4,0
LEMUR-2-ANDIS,2017-042P,2026-07-18T01:43:45.666912,15.35996922,.00073243,97.3688,19.8725,246.3680,113.6795,0,U,42838,999,49319,.35542868E-3,.12392E-3,0
LEMUR-2-MONSON,2017-042Q,2026-07-18T10:54:59.046048,15.28804140,.00055178,97.4097,19.8815,231.1425,128.9323,0,U,42839,999,49294,.28173185E-3,.7815E-4,0
LEMUR-2-FURIAUS,2017-042R,2026-07-18T10:59:35.649600,15.31195052,.00056947,97.3785,17.8461,315.3320,44.7462,0,U,42840,999,49299,.31588602E-3,.9448E-4,0
LEMUR-2-PETERG,2017-042S,2026-07-18T18:59:57.999264,15.35108847,.0003567,97.4000,24.9034,205.0098,155.0973,0,U,42841,999,49328,.32428E-3,.10973E-3,0
LEMUR-2-DEMBITZ,2017-042T,2026-07-18T17:44:31.427232,15.31174001,.0005122,97.3837,21.1724,257.8927,102.1741,0,U,42842,999,49317,.28055E-3,.8375E-4,0
LEMUR-2-ZACHARY,2017-042W,2026-07-18T20:30:07.683840,15.52943415,.0002816,97.3577,32.2256,227.5317,132.5698,0,U,42845,999,49411,.47386E-3,.29457E-3,0
LEMUR-2-AMANDA-SVANTE,2021-034B,2026-07-18T18:33:21.707424,15.36094086,.0004767,97.5742,278.9334,134.6151,225.5482,0,U,48269,999,28590,.50629E-3,.17742E-3,0
LEMUR-2-SPECIAL-K,2021-034F,2026-07-18T04:36:33.362784,15.75793092,.00061284,97.5639,288.5518,212.7149,147.3737,0,U,48273,999,28655,.11690989E-2,.18292E-2,0
LEMUR-2-EMBRIONOVIS,2023-084AQ,2026-07-18T19:44:51.184032,15.38288175,.0008656,97.6331,345.2609,192.7646,167.3380,0,U,56970,999,17254,.20904E-3,.7808E-4,0
LEMUR-2-DEVERILL-M-T,2023-100F,2026-07-18T20:48:05.413248,15.41202904,.000478,99.4446,247.8136,281.3720,78.6983,0,U,57391,999,16612,.37138E-3,.15314E-3,0
LEMUR-2-BASS,2023-174D,2026-07-18T18:43:28.219008,15.44067453,.0007428,97.3840,284.9557,67.4696,292.7337,0,U,58259,999,15023,.21659E-3,.9815E-4,0
LEMUR-2-JK0903EM1407,2023-174CJ,2026-07-18T18:59:33.784800,15.53187728,.0003255,97.3918,291.1881,18.9836,341.1537,0,U,58336,999,15063,.26446E-3,.16516E-3,0
LEMUR-2-MJR092620,2023-174CN,2026-07-18T18:08:41.769600,15.45941359,.0004969,97.3969,290.3915,17.5826,342.5595,0,U,58340,999,15052,.21387E-3,.10325E-3,0
LEMUR-2-NIMBUS2000,2024-022A,2026-07-18T20:08:58.309728,15.41208925,.0008366,97.4079,50.2613,16.0320,344.1190,0,U,58899,999,13714,.29326E-3,.12108E-3,0
LEMUR-2-VALHALLA,2024-022B,2026-07-18T20:18:09.045792,15.40554967,.0008843,97.4078,50.2340,11.5023,348.6423,0,U,58900,999,13714,.21908E-3,.8827E-4,0
LEMUR-2-CAEL,2024-022E,2026-07-18T02:44:47.634144,15.41915567,.00067853,97.4058,50.4848,358.7316,1.3912,0,U,58903,999,13710,.23069587E-3,.9726E-4,0
LEMUR-2-JOHNNYTRUONG,2024-043BA,2026-07-18T20:49:49.012032,15.62759665,.0003851,97.5405,353.5944,84.0742,276.0954,0,U,59146,999,13298,.27716E-3,.24814E-3,0
LEMUR-2-TOMATOKECHUP,2024-149D,2026-07-18T18:16:13.359072,15.36625314,.0003406,97.3787,281.9009,115.5350,244.6246,0,U,60471,999,10701,.16003E-3,.5641E-4,0
LEMUR-2-STELLA,2024-149BT,2026-07-18T18:41:30.283872,15.12413075,.0001246,97.6731,282.3852,124.1125,236.0223,0,U,60533,999,10527,.35988E-3,.6185E-4,0
LEMUR-2-MARHISYAM,2024-149BW,2026-07-18T18:30:26.589312,15.11816351,.0002282,97.6874,282.8575,64.0829,296.0636,0,U,60536,999,10525,.30038E-3,.5065E-4,0
LEMUR-2-AHMED-ASRAR,2024-149DN,2026-07-18T18:34:36.369120,15.13352101,.0001528,97.7000,285.0778,189.1526,170.9677,0,U,60576,999,10534,.3474E-3,.6127E-4,0
LEMUR-2-LLOYD,2024-149DP,2026-07-18T19:03:09.612000,15.09785247,.0004387,97.6733,280.9510,62.6634,297.5041,0,U,60577,999,10516,.29276E-3,.4665E-4,0
LEMUR-2-SQUIRRELCOMM,2024-149DQ,2026-07-18T18:54:42.240096,15.07465103,.000402,97.6700,280.6052,309.7774,50.3099,0,U,60578,999,10516,.19173E-3,.2844E-4,0
LEMUR-2-SIERRINI,2024-149DR,2026-07-18T19:12:56.439072,15.11553194,.0006227,97.6830,282.5451,81.6935,278.5001,0,U,60579,999,10523,.31941E-3,.5353E-4,0
LEMUR-2-WILSON,2025-009CP,2026-07-18T17:57:53.309088,14.95282787,.0001729,97.7017,277.6599,303.7039,56.4017,0,U,62694,999,8207,.92426E-4,.961E-5,0
LEMUR-2-STAR-FOX,2025-009CR,2026-07-18T18:55:56.394624,15.02867156,.0001823,97.6898,281.1703,28.2568,331.8756,0,U,62696,999,8230,.28579E-3,.3771E-4,0
LEMUR-2-ARIANNA,2025-009CU,2026-07-18T18:53:43.425024,15.02870725,.0002141,97.6840,280.9185,37.2363,322.9011,0,U,62699,999,8230,.30905E-3,.4084E-4,0
LEMUR-2-ALISIA,2025-009DB,2026-07-18T18:12:47.270880,15.03204115,.0004736,97.6963,281.7223,119.1636,241.0064,0,U,62706,999,10490,.27627E-3,.3677E-4,0
